NORAD_CAT_ID,OBJECT_NAME,OBJECT_TYPE,EPOCH,MEAN_MOTION,ECCENTRICITY,INCLINATION,RA_OF_ASC_NODE,ARG_OF_PERICENTER,MEAN_ANOMALY,BSTAR,MEAN_MOTION_DOT,MEAN_MOTION_DDOT,TLE_LINE0,TLE_LINE1,TLE_LINE2,SEMIMAJOR_AXIS,PERIOD,APOGEE,PERIGEE,DECAYED
49166.0,STARLINK-3089,PAYLOAD,2022-06-14 04:31:25,14.96702615,0.0003236,69.9983,114.3631,275.8489,84.23,0.00040929,4.595e-05,0.0,0 STARLINK-3089,1 49166U 21082AN  22165.18848533  .00004595  00000-0  40929-3 0  9995,2 49166  69.9983 114.3631 0003236 275.8489  84.2300 14.96702615 43294,6955.23,96.211,579.346,574.844,0.0
49166.0,STARLINK-3089,PAYLOAD,2022-06-14 07:43:53,14.96705408,0.0003177,69.9986,114.027,274.7048,85.3747,0.00043888,4.934e-05,0.0,0 STARLINK-3089,1 49166U 21082AN  22165.32214923  .00004934  00000-0  43888-3 0  9995,2 49166  69.9986 114.0270 0003177 274.7048  85.3747 14.96705408 43319,6955.221,96.211,579.2959999999998,574.877,0.0
49166.0,STARLINK-3089,PAYLOAD,2022-06-14 20:33:47,14.96723725,0.0003103,69.9987,112.6826,270.8237,89.2565,0.0002869,3.194e-05,0.0,0 STARLINK-3089,1 49166U 21082AN  22165.85679869  .00003194  00000-0  28690-3 0  9998,2 49166  69.9987 112.6826 0003103 270.8237  89.2565 14.96723725 43398,6955.165,96.21,579.188,574.871,0.0
49166.0,STARLINK-3089,PAYLOAD,2022-06-15 06:11:12,14.96733058,0.0003096,70.0001,111.6741,271.1851,88.8952,0.00048961,5.519e-05,0.0,0 STARLINK-3089,1 49166U 21082AN  22166.25778891  .00005519  00000-0  48961-3 0  9994,2 49166  70.0001 111.6741 0003096 271.1851  88.8952 14.96733058 43452,6955.136,96.21,579.154,574.847,0.0
49166.0,STARLINK-3089,PAYLOAD,2022-06-15 14:12:24,14.96737908,0.00031,70.0004,110.8335,271.0944,88.9859,0.0004955,5.588e-05,0.0,0 STARLINK-3089,1 49166U 21082AN  22166.59194447  .00005588  00000-0  49550-3 0  9991,2 49166  70.0004 110.8335 0003100 271.0944  88.9859 14.96737908 43504,6955.121,96.209,579.1419999999998,574.83,0.0
49166.0,STARLINK-3089,PAYLOAD,2022-06-15 23:49:49,14.96733916,0.0003042,70.0007,109.8253,270.9997,89.0812,0.00025707,2.853e-05,0.0,0 STARLINK-3089,1 49166U 21082AN  22166.99293356  .00002853  00000-0  25707-3 0  9994,2 49166  70.0007 109.8253 0003042 270.9997  89.0812 14.96733916 43567,6955.1330000000025,96.209,579.114,574.882,0.0
49166.0,STARLINK-3089,PAYLOAD,2022-06-19 12:50:26,14.96711525,0.0003052,69.9983,100.9149,270.4965,89.5844,4.8802e-06,-3.6e-07,0.0,0 STARLINK-3089,1 49166U 21082AN  22170.53502396 -.00000036  00000-0  48802-5 0  9991,2 49166  69.9983 100.9149 0003052 270.4965  89.5844 14.96711525 44095,6955.2019999999975,96.211,579.19,574.945,0.0
49166.0,STARLINK-3089,PAYLOAD,2022-06-19 20:51:38,14.96701149,0.0002944,70.0006,100.0751,269.5546,90.5786,0.0,-9.2e-07,0.0,0 STARLINK-3089,1 49166U 21082AN  22170.86919097 -.00000092  00000-0  00000+0 0  9991,2 49166  70.0006 100.0751 0002944 269.5546  90.5786 14.96701149 44141,6955.235,96.212,579.1469999999998,575.052,0.0
49166.0,STARLINK-3089,PAYLOAD,2022-06-20 04:52:48,14.96714199,0.0003087,69.9987,99.235,268.2133,91.8671,0.00011626,1.239e-05,0.0,0 STARLINK-3089,1 49166U 21082AN  22171.20334061  .00001239  00000-0  11626-3 0  9995,2 49166  69.9987  99.2350 0003087 268.2133  91.8671 14.96714199 44198,6955.194,96.211,579.206,574.9119999999998,0.0
49166.0,STARLINK-3089,PAYLOAD,2022-06-20 12:53:59,14.96672531,0.0002667,69.9987,98.3951,265.9687,94.1166,0.00092669,0.00010519,0.0,0 STARLINK-3089,1 49166U 21082AN  22171.53749365  .00010519  00000-0  92669-3 0  9995,2 49166  69.9987  98.3951 0002667 265.9687  94.1166 14.96672531 44240,6955.323,96.213,579.043,575.3330000000002,0.0
49166.0,STARLINK-3089,PAYLOAD,2022-06-20 19:18:56,14.96677694,0.0002707,69.9986,97.7228,266.3018,93.783,0.0009454,0.00010735,0.0,0 STARLINK-3089,1 49166U 21082AN  22171.80482541  .00010735  00000-0  94540-3 0  9995,2 49166  69.9986  97.7228 0002707 266.3018  93.7830 14.96677694 44289,6955.307,96.213,579.055,575.289,0.0
49166.0,STARLINK-3089,PAYLOAD,2022-06-21 01:43:53,14.9672103,0.0002859,69.998,97.0492,260.7657,99.3178,9.7952e-05,1.03e-05,0.0,0 STARLINK-3089,1 49166U 21082AN  22172.07215076  .00001030  00000-0  97952-4 0  9991,2 49166  69.9980  97.0492 0002859 260.7657  99.3178 14.96721030 44320,6955.1730000000025,96.21,579.026,575.049,0.0
49166.0,STARLINK-3089,PAYLOAD,2022-06-21 20:58:45,14.96715391,0.0002975,69.9988,95.0318,268.0467,92.035,8.497299999999999e-05,8.81e-06,0.0,0 STARLINK-3089,1 49166U 21082AN  22172.87413861  .00000881  00000-0  84973-4 0  9993,2 49166  69.9988  95.0318 0002975 268.0467  92.0350 14.96715391 44440,6955.19,96.211,579.125,574.986,0.0
49166.0,STARLINK-3089,PAYLOAD,2022-06-22 00:11:14,14.96716247,0.0003003999999999,69.9987,94.696,267.975,92.1064,9.4241e-05,9.87e-06,0.0,0 STARLINK-3089,1 49166U 21082AN  22173.00780179  .00000987  00000-0  94241-4 0  9994,2 49166  69.9987  94.6960 0003004 267.9750  92.1064 14.96716247 44460,6955.188,96.211,579.1419999999998,574.9630000000002,0.0
49166.0,STARLINK-3089,PAYLOAD,2022-06-22 19:26:06,14.96706118,0.0003028,69.9987,92.6804,257.0153,103.0668,-0.00014464,-1.746e-05,0.0,0 STARLINK-3089,1 49166U 21082AN  22173.80980127 -.00001746  00000-0 -14464-3 0  9991,2 49166  69.9987  92.6804 0003028 257.0153 103.0668 14.96706118 44589,6955.219,96.211,579.19,574.9780000000002,0.0
49166.0,STARLINK-3089,PAYLOAD,2022-06-22 22:38:35,14.96703137,0.0003218,69.9989,92.3434,267.5007,92.5782,-0.0001495,-1.802e-05,0.0,0 STARLINK-3089,1 49166U 21082AN  22173.94346853 -.00001802  00000-0 -14950-3 0  9991,2 49166  69.9989  92.3434 0003218 267.5007  92.5782 14.96703137 44602,6955.228,96.211,579.332,574.855,0.0
49166.0,STARLINK-3089,PAYLOAD,2022-06-24 00:18:23,14.96709496,0.0003039,69.999,89.6545,259.4399,100.6417,0.00020819,2.292e-05,0.0,0 STARLINK-3089,1 49166U 21082AN  22175.01277175  .00002292  00000-0  20819-3 0  9994,2 49166  69.9990  89.6545 0003039 259.4399 100.6417 14.96709496 44768,6955.209,96.211,579.187,574.96,0.0
49166.0,STARLINK-3089,PAYLOAD,2022-06-24 11:32:05,14.96659721,0.0002889,69.9996,88.4786,260.738,99.3452,0.0013094,0.00014906,0.0,0 STARLINK-3089,1 49166U 21082AN  22175.48061367  .00014906  00000-0  13094-2 0  9990,2 49166  69.9996  88.4786 0002889 260.7380  99.3452 14.96659721 44831,6955.363,96.214,579.237,575.2180000000002,0.0
49166.0,STARLINK-3089,PAYLOAD,2022-06-24 19:33:14,14.96722745,0.0003284,69.9996,87.6382,265.5428,94.5355,0.00019584,2.151e-05,0.0,0 STARLINK-3089,1 49166U 21082AN  22175.81474965  .00002151  00000-0  19584-3 0  9999,2 49166  69.9996  87.6382 0003284 265.5428  94.5355 14.96722745 44881,6955.168000000002,96.21,579.317,574.749,0.0
49166.0,STARLINK-3089,PAYLOAD,2022-06-24 21:09:28,14.9672316,0.0003284,69.9997,87.4701,265.5162,94.5621,0.00020002,2.199e-05,0.0,0 STARLINK-3089,1 49166U 21082AN  22175.88158120  .00002199  00000-0  20002-3 0  9997,2 49166  69.9997  87.4701 0003284 265.5162  94.5621 14.96723160 44899,6955.166,96.21,579.315,574.747,0.0
49166.0,STARLINK-3089,PAYLOAD,2022-06-25 03:34:26,14.96718609,0.0003416,69.999,86.7971,264.9462,95.1307,0.00015392,1.671e-05,0.0,0 STARLINK-3089,1 49166U 21082AN  22176.14891313  .00001671  00000-0  15392-3 0  9995,2 49166  69.9990  86.7971 0003416 264.9462  95.1307 14.96718609 44931,6955.18,96.21,579.4209999999998,574.67,0.0
49166.0,STARLINK-3089,PAYLOAD,2022-06-25 11:35:37,14.96717291,0.0003379,69.9987,85.95700000000002,265.0697,95.0076,-1.374e-05,-2.49e-06,0.0,0 STARLINK-3089,1 49166U 21082AN  22176.48307791 -.00000249  00000-0 -13740-4 0  9992,2 49166  69.9987  85.9570 0003379 265.0697  95.0076 14.96717291 44986,6955.185,96.211,579.4,574.6990000000002,0.0
49166.0,STARLINK-3089,PAYLOAD,2022-06-25 21:13:03,14.96718957,0.0003366,69.9988,84.9485,264.9305,95.1469,-7.541e-06,-1.78e-06,0.0,0 STARLINK-3089,1 49166U 21082AN  22176.88406717 -.00000178  00000-0 -75410-5 0  9998,2 49166  69.9988  84.9485 0003366 264.9305  95.1469 14.96718957 45046,6955.179,96.21,579.385,574.703,0.0
49166.0,STARLINK-3089,PAYLOAD,2022-06-26 03:37:59,14.96725915,0.0003308,69.9987,84.2764,265.4033,94.6747,7.4847e-05,7.65e-06,0.0,0 STARLINK-3089,1 49166U 21082AN  22177.15138783  .00000765  00000-0  74847-4 0  9996,2 49166  69.9987  84.2764 0003308 265.4033  94.6747 14.96725915 45087,6955.158,96.21,579.3240000000002,574.722,0.0
49166.0,STARLINK-3089,PAYLOAD,2022-06-26 11:39:11,14.96727431,0.0003299,69.9987,83.4358,265.4743,94.6039,4.399e-05,4.12e-06,0.0,0 STARLINK-3089,1 49166U 21082AN  22177.48554517  .00000412  00000-0  43990-4 0  9993,2 49166  69.9987  83.4358 0003299 265.4743  94.6039 14.96727431 45139,6955.153,96.21,579.313,574.724,0.0
49166.0,STARLINK-3089,PAYLOAD,2022-06-26 21:16:36,14.96728947,0.0003301,69.9987,82.4272,265.3409,94.7372,5.2105e-05,5.05e-06,0.0,0 STARLINK-3089,1 49166U 21082AN  22177.88653281  .00000505  00000-0  52105-4 0  9996,2 49166  69.9987  82.4272 0003301 265.3409  94.7372 14.96728947 45195,6955.148,96.21,579.309,574.7180000000002,0.0
49166.0,STARLINK-3089,PAYLOAD,2022-06-27 03:41:33,14.9672229,0.0003262,69.9987,81.7546,264.9988,95.0798,8.213e-05,8.49e-06,0.0,0 STARLINK-3089,1 49166U 21082AN  22178.15386270  .00000849  00000-0  82130-4 0  9990,2 49166  69.9987  81.7546 0003262 264.9988  95.0798 14.96722290 45230,6955.169,96.21,579.303,574.765,0.0
49166.0,STARLINK-3089,PAYLOAD,2022-06-27 18:07:42,14.96716507,0.0003168,69.9988,80.2416,265.1095,94.9701,1.2906e-05,5.6e-07,0.0,0 STARLINK-3089,1 49166U 21082AN  22178.75535503  .00000056  00000-0  12906-4 0  9995,2 49166  69.9988  80.2416 0003168 265.1095  94.9701 14.96716507 45324,6955.187,96.211,579.255,574.849,0.0
49166.0,STARLINK-3089,PAYLOAD,2022-06-27 21:20:11,14.96717117,0.0003164,69.9988,79.9054,265.1227,94.957,1.6608e-05,9.8e-07,0.0,0 STARLINK-3089,1 49166U 21082AN  22178.88901816  .00000098  00000-0  16608-4 0  9992,2 49166  69.9988  79.9054 0003164 265.1227  94.9570 14.96717117 45344,6955.185,96.211,579.251,574.849,0.0
